SGSAT                   
1 42703U 98067LL  17208.83522725  .00014803  00000-0  20385-3 0  9995
2 42703  51.6383 194.5804 0004175  60.0098 300.1308 15.57476106 11183
CXBN-2                  
1 42704U 98067LM  17208.86138877  .00007638  00000-0  11301-3 0  9996
2 42704  51.6388 194.7556 0003434  63.3618 296.7725 15.56366827 11197
ICECUBE                 
1 42705U 98067LN  17208.85721737  .00006867  00000-0  10147-3 0  9999
2 42705  51.6396 194.7308 0003358  65.0939 295.0401 15.56589892 11251
PHOENIX                 
1 42706U 98067LP  17208.85384920  .00007702  00000-0  11311-3 0  9992
2 42706  51.6393 194.7080 0002660  77.8195 282.3095 15.56557048 11184
X-CUBESAT               
1 42707U 98067LQ  17208.85483827  .00007936  00000-0  11644-3 0  9997
2 42707  51.6387 194.7122 0002729  77.5365 282.5932 15.56532112 11173
QBEE50-LTU-OC           
1 42708U 98067LR  17208.79228486  .00007991  00000-0  11738-3 0  9994
2 42708  51.6388 195.0445 0002777  78.5106 281.6197 15.56489071 11127
ALTAIR PATHFINDER       
1 42711U 98067LS  17208.81780822  .00005626  00000-0  87133-4 0  9994
2 42711  51.6387 195.2121 0005507  54.7520 305.3986 15.55701914 10832
SHARC                   
1 42712U 98067LT  17208.81453280  .00005107  00000-0  79867-4 0  9999
2 42712  51.6392 195.1933 0003438  59.5478 300.5852 15.55656060 11072
ZA-AEROSAT              
1 42713U 98067LU  17208.80383218  .00006269  00000-0  94845-4 0  9995
2 42713  51.6390 195.1210 0003449  52.8116 307.3190 15.56118033 10833
LINK                    
1 42714U 98067LV  17208.86506992  .00009941  00000-0  14480-3 0  9994
2 42714  51.6384 194.7785 0003843  56.0870 304.0487 15.56396871 10954
CSUNSAT 1               
1 42715U 98067LW  17208.80921899  .00007207  00000-0  10825-3 0  9998
2 42715  51.6387 195.1546 0005637  46.7527 313.3935 15.56048121 10836
UPSAT                   
1 42716U 98067LX  17208.85511774  .00009128  00000-0  13225-3 0  9992
2 42716  51.6387 194.7137 0005424 105.9339 254.2251 15.56657523 10972
SPACECUBE               
1 42717U 98067LY  17208.86211543  .00007678  00000-0  11356-3 0  9996
2 42717  51.6389 194.7602 0005389 107.3480 252.8101 15.56365402 10212
HOOPOE                  
1 42718U 98067LZ  17208.85906165  .00008536  00000-0  12477-3 0  9996
2 42718  51.6388 194.7404 0005459 105.7144 254.4450 15.56515491 10219
CHALLENGER              
1 42721U 98067MA  17208.86726998  .00010927  00000-0  15714-3 0  9999
2 42721  51.6385 194.7918 0008924  91.3033 268.8981 15.56600346  9914
NJUST-1                 
1 42722U 98067MB  17208.36893450  .00007070  00000-0  10704-3 0  9992
2 42722  51.6386 197.4641 0008589  92.6730 267.5245 15.55850710  9835
UNSW-ECO                
1 42723U 98067MC  17208.49138570  .00009344  00000-0  13751-3 0  9993
2 42723  51.6390 196.7827 0008568  91.2635 268.9338 15.56179741  9832
DUTHSAT                 
1 42724U 98067MD  17208.80790897  .00010817  00000-0  15645-3 0  9996
2 42724  51.6388 195.1465 0007844  92.6167 267.5723 15.56463957  9807
LILACSAT-1              
1 42725U 98067ME  17208.82088963  .00007522  00000-0  11352-3 0  9993
2 42725  51.6389 195.2335 0007592  95.9348 264.2509 15.55835324  9821
NSIGHT-1                
1 42726U 98067MF  17208.82961178  .00005038  00000-0  79702-4 0  9996
2 42726  51.6392 195.2924 0007456  98.0859 262.0978 15.55366943  9811
SNUSAT-1                
1 42727U 98067MG  17208.82029650  .00007846  00000-0  11788-3 0  9995
2 42727  51.6383 195.2266 0009228  61.6727 298.5194 15.55874789  9771
QBITO                   
1 42728U 98067MH  17208.81388146  .00007879  00000-0  11743-3 0  9990
2 42728  51.6392 195.1885 0004741  97.1325 263.0205 15.56111402  9611
AALTO-2                 
1 42729U 98067MJ  17208.81374822  .00008106  00000-0  12061-3 0  9995
2 42729  51.6388 195.1866 0004738  97.1903 262.9627 15.56110701  9622
SUSAT                   
1 42730U 98067MK  17208.81523932  .00007694  00000-0  11514-3 0  9998
2 42730  51.6387 195.1961 0004803  96.1235 264.0304 15.56038188  9611
I-INSPIRE II            
1 42731U 98067ML  17208.81138665  .00009123  00000-0  13426-3 0  9997
2 42731  51.6382 195.1657 0008798  50.5368 309.6401 15.56210926  9668
POLYITAN-2-SAU          
1 42732U 98067MM  17208.81255925  .00008303  00000-0  12314-3 0  9991
2 42732  51.6381 195.1734 0008699  50.3140 309.8617 15.56143012  9662
SNUSAT-1B               
1 42733U 98067MN  17208.81600515  .00007862  00000-0  11750-3 0  9993
2 42733  51.6382 195.1969 0008551  51.6956 308.4803 15.56021464  9668
EXALTA-1                
1 42734U 98067MP  17208.81133174  .00009280  00000-0  13626-3 0  9996
2 42734  51.6384 195.1663 0010393  71.5554 288.6567 15.56236728  9616
AOXIANG-1               
1 42735U 98067MQ  17208.36790409  .00007264  00000-0  10958-3 0  9992
2 42735  51.6385 197.4567 0009281  89.8497 270.3558 15.55896253 10960
BEEAGLESAT              
1 42736U 98067MR  17208.81749561  .00007251  00000-0  10919-3 0  9999
2 42736  51.6386 195.2096 0009239  90.5911 269.6139 15.55948802  9724
ATLANTIS                
1 42737U 98067MS  17208.40766458  .00016616  00000-0  22990-3 0  9996
2 42737  51.6379 196.9722 0009639  83.6984 276.5105 15.57208528  9555
PROGRESS-MS 06          
1 42756U 17033A   17208.67153935  .00000932  00000-0  21299-4 0  9996
2 42756  51.6404 196.5128 0006281  80.5285 262.4667 15.54229306  6739
ISS DEB (ROSA)          
1 42813U 98067MT  17208.40267285  .00021877  00000-0  31842-3 0  9996
2 42813  51.6412 197.6847 0006633  69.7496 290.4126 15.55650648  4957
